{
  "type": "FeatureCollection",
  "features": [
    {
      "type": "Feature",
      "properties": {
        "norad_id": 31307,
        "name": "GALAXY 17 (G-17)",
        "group": "intelsat",
        "lat": 0.5553773718402557,
        "lon": -110.99719750138149,
        "alt_km": 35760.46303924189,
        "timestamp": "2025-12-10T16:57:11.302194+00:00",
        "meta_object_name": "GALAXY 17 (G-17)",
        "meta_object_id": "2007-016B",
        "meta_epoch": "2025-12-10T05:31:38.713152",
        "meta_mean_motion": 1.00272548,
        "meta_eccentricity": 0.0006008,
        "meta_inclination": 2.4939,
        "meta_ra_of_asc_node": 82.3112,
        "meta_arg_of_pericenter": 162.8235,
        "meta_mean_anomaly": 191.995,
        "meta_ephemeris_type": 0,
        "meta_classification_type": "U",
        "meta_norad_cat_id": 31307,
        "meta_element_set_no": 999,
        "meta_rev_at_epoch": 6790,
        "meta_bstar": 0,
        "meta_mean_motion_dot": -2.03e-06,
        "meta_mean_motion_ddot": 0,
        "tle_line1": "1 31307U 07016B   25344.23030918 -.00000203  00000+0  00000+0 0  9996",
        "tle_line2": "2 31307   2.4939  82.3112 0006008 162.8235 191.9950  1.00272548 67906"
      },
      "geometry": {
        "type": "Point",
        "coordinates": [
          -110.99719750138149,
          0.5553773718402557
        ]
      }
    },
    {
      "type": "Feature",
      "properties": {
        "norad_id": 31862,
        "name": "DIRECTV 10",
        "group": "intelsat",
        "lat": -0.0003591880256229912,
        "lon": -128.80945118054555,
        "alt_km": 35784.576580831046,
        "timestamp": "2025-12-10T16:57:11.302205+00:00",
        "meta_object_name": "DIRECTV 10",
        "meta_object_id": "2007-032A",
        "meta_epoch": "2025-12-10T08:12:19.170720",
        "meta_mean_motion": 1.00271553,
        "meta_eccentricity": 3.85e-05,
        "meta_inclination": 0.0087,
        "meta_ra_of_asc_node": 98.9872,
        "meta_arg_of_pericenter": 118.0776,
        "meta_mean_anomaly": 242.5518,
        "meta_ephemeris_type": 0,
        "meta_classification_type": "U",
        "meta_norad_cat_id": 31862,
        "meta_element_set_no": 999,
        "meta_rev_at_epoch": 4370,
        "meta_bstar": 0,
        "meta_mean_motion_dot": -9.9e-07,
        "meta_mean_motion_ddot": 0,
        "tle_line1": "1 31862U 07032A   25344.34188855 -.00000099  00000+0  00000+0 0  9999",
        "tle_line2": "2 31862   0.0087  98.9872 0000385 118.0776 242.5518  1.00271553 43701"
      },
      "geometry": {
        "type": "Point",
        "coordinates": [
          -128.80945118054555,
          -0.0003591880256229912
        ]
      }
    },
    {
      "type": "Feature",
      "properties": {
        "norad_id": 32253,
        "name": "INTELSAT 11 (IS-11)",
        "group": "intelsat",
        "lat": 2.425014069220546,
        "lon": -151.41732736556907,
        "alt_km": 36101.82827756899,
        "timestamp": "2025-12-10T16:57:11.302216+00:00",
        "meta_object_name": "INTELSAT 11 (IS-11)",
        "meta_object_id": "2007-044B",
        "meta_epoch": "2025-12-10T08:50:38.825088",
        "meta_mean_motion": 0.99047863,
        "meta_eccentricity": 0.0009039,
        "meta_inclination": 3.0743,
        "meta_ra_of_asc_node": 81.0014,
        "meta_arg_of_pericenter": 165.0456,
        "meta_mean_anomaly": 202.0786,
        "meta_ephemeris_type": 0,
        "meta_classification_type": "U",
        "meta_norad_cat_id": 32253,
        "meta_element_set_no": 999,
        "meta_rev_at_epoch": 6658,
        "meta_bstar": 0,
        "meta_mean_motion_dot": 7.8e-07,
        "meta_mean_motion_ddot": 0,
        "tle_line1": "1 32253U 07044B   25344.36850492  .00000078  00000+0  00000+0 0  9998",
        "tle_line2": "2 32253   3.0743  81.0014 0009039 165.0456 202.0786  0.99047863 66582"
      },
      "geometry": {
        "type": "Point",
        "coordinates": [
          -151.41732736556907,
          2.425014069220546
        ]
      }
    },
    {
      "type": "Feature",
      "properties": {
        "norad_id": 32388,
        "name": "HORIZONS-2",
        "group": "intelsat",
        "lat": 0.08429691819254696,
        "lon": -99.82100662209653,
        "alt_km": 35765.728054167426,
        "timestamp": "2025-12-10T16:57:11.302227+00:00",
        "meta_object_name": "HORIZONS-2",
        "meta_object_id": "2007-063B",
        "meta_epoch": "2025-12-10T04:15:38.659392",
        "meta_mean_motion": 1.00270369,
        "meta_eccentricity": 0.00049966,
        "meta_inclination": 2.1151,
        "meta_ra_of_asc_node": 82.986,
        "meta_arg_of_pericenter": 187.7367,
        "meta_mean_anomaly": 158.5607,
        "meta_ephemeris_type": 0,
        "meta_classification_type": "U",
        "meta_norad_cat_id": 32388,
        "meta_element_set_no": 999,
        "meta_rev_at_epoch": 6591,
        "meta_bstar": 0,
        "meta_mean_motion_dot": -2.5e-06,
        "meta_mean_motion_ddot": 0,
        "tle_line1": "1 32388U 07063B   25344.17753078 -.00000250  00000+0  00000+0 0  9992",
        "tle_line2": "2 32388   2.1151  82.9860 0004996 187.7367 158.5607  1.00270369 65917"
      },
      "geometry": {
        "type": "Point",
        "coordinates": [
          -99.82100662209653,
          0.08429691819254696
        ]
      }
    },
    {
      "type": "Feature",
      "properties": {
        "norad_id": 32729,
        "name": "DIRECTV 11",
        "group": "intelsat",
        "lat": 0.0004819775128406055,
        "lon": -125.21907537715438,
        "alt_km": 35785.13284132031,
        "timestamp": "2025-12-10T16:57:11.302238+00:00",
        "meta_object_name": "DIRECTV 11",
        "meta_object_id": "2008-013A",
        "meta_epoch": "2025-12-10T10:29:59.968896",
        "meta_mean_motion": 1.00271438,
        "meta_eccentricity": 3.93e-05,
        "meta_inclination": 0.018,
        "meta_ra_of_asc_node": 174.7385,
        "meta_arg_of_pericenter": 9.6314,
        "meta_mean_anomaly": 313.349,
        "meta_ephemeris_type": 0,
        "meta_classification_type": "U",
        "meta_norad_cat_id": 32729,
        "meta_element_set_no": 999,
        "meta_rev_at_epoch": 4370,
        "meta_bstar": 0,
        "meta_mean_motion_dot": -1.22e-06,
        "meta_mean_motion_ddot": 0,
        "tle_line1": "1 32729U 08013A   25344.43749964 -.00000122  00000+0  00000+0 0  9993",
        "tle_line2": "2 32729   0.0180 174.7385 0000393   9.6314 313.3490  1.00271438 43700"
      },
      "geometry": {
        "type": "Point",
        "coordinates": [
          -125.21907537715438,
          0.0004819775128406055
        ]
      }
    },
    {
      "type": "Feature",
      "properties": {
        "norad_id": 32951,
        "name": "GALAXY 18 (G-18)",
        "group": "intelsat",
        "lat": -0.029816019294595066,
        "lon": -149.05992980835032,
        "alt_km": 35777.59374579201,
        "timestamp": "2025-12-10T16:57:11.302250+00:00",
        "meta_object_name": "GALAXY 18 (G-18)",
        "meta_object_id": "2008-024A",
        "meta_epoch": "2025-12-10T07:53:45.617280",
        "meta_mean_motion": 1.0027288,
        "meta_eccentricity": 0.0003134,
        "meta_inclination": 0.0161,
        "meta_ra_of_asc_node": 307.7167,
        "meta_arg_of_pericenter": 315.2839,
        "meta_mean_anomaly": 171.7407,
        "meta_ephemeris_type": 0,
        "meta_classification_type": "U",
        "meta_norad_cat_id": 32951,
        "meta_element_set_no": 999,
        "meta_rev_at_epoch": 4395,
        "meta_bstar": 0,
        "meta_mean_motion_dot": 2.9e-07,
        "meta_mean_motion_ddot": 0,
        "tle_line1": "1 32951U 08024A   25344.32900020  .00000029  00000+0  00000+0 0  9997",
        "tle_line2": "2 32951   0.0161 307.7167 0003134 315.2839 171.7407  1.00272880 43959"
      },
      "geometry": {
        "type": "Point",
        "coordinates": [
          -149.05992980835032,
          -0.029816019294595066
        ]
      }
    },
    {
      "type": "Feature",
      "properties": {
        "norad_id": 33153,
        "name": "INTELSAT 25 (IS-25)",
        "group": "intelsat",
        "lat": -1.43671290019763,
        "lon": -57.51426067806237,
        "alt_km": 35768.08772224364,
        "timestamp": "2025-12-10T16:57:11.302262+00:00",
        "meta_object_name": "INTELSAT 25 (IS-25)",
        "meta_object_id": "2008-034A",
        "meta_epoch": "2025-12-09T20:16:17.405760",
        "meta_mean_motion": 1.00270259,
        "meta_eccentricity": 0.00053791,
        "meta_inclination": 2.2204,
        "meta_ra_of_asc_node": 82.6784,
        "meta_arg_of_pericenter": 184.9843,
        "meta_mean_anomaly": 83.7399,
        "meta_ephemeris_type": 0,
        "meta_classification_type": "U",
        "meta_norad_cat_id": 33153,
        "meta_element_set_no": 999,
        "meta_rev_at_epoch": 6379,
        "meta_bstar": 0,
        "meta_mean_motion_dot": -2.21e-06,
        "meta_mean_motion_ddot": 0,
        "tle_line1": "1 33153U 08034A   25343.84464590 -.00000221  00000+0  00000+0 0  9991",
        "tle_line2": "2 33153   2.2204  82.6784 0005379 184.9843  83.7399  1.00270259 63793"
      },
      "geometry": {
        "type": "Point",
        "coordinates": [
          -57.51426067806237,
          -1.43671290019763
        ]
      }
    }
  ]
}